STARLINK-31820          
1 59725U 24088T   26068.45865525  .00000496  00000+0  28884-4 0  9994
2 59725  53.1609 141.2066 0001205  67.9600 292.1529 15.30186376103644
SL-3 R/B                
1 12586U 81065B   26068.45864075  .00009961  00000+0  31150-3 0  9990
2 12586  97.6337 110.7068 0011813  12.1207 348.0316 15.33291495434928
